{"type": "FeatureCollection", "features": [ {"type": "Feature", "properties": {"norad_id": 37689, "name": "FENGYUN 1C DEB", "group": "fengyun-1c-debris", "lat": -79.15641032062949, "lon": 90.56612212314897, "alt_km": 729.231066626462, "timestamp": "2025-12-20T03:42:47.682720+00:00", "meta": {"OBJECT_NAME": "FENGYUN 1C DEB", "OBJECT_ID": "1999-025ELE", "EPOCH": "2025-12-16T22:11:39.439392", "MEAN_MOTION": 14.48718217, "ECCENTRICITY": 0.00208957, "INCLINATION": 98.9198, "RA_OF_ASC_NODE": 32.0803, "ARG_OF_PERICENTER": 227.3129, "MEAN_ANOMALY": 132.6303, "EPHEMERIS_TYPE": 0, "CLASSIFICATION_TYPE": "U", "NORAD_CAT_ID": 37689, "ELEMENT_SET_NO": 999, "REV_AT_EPOCH": 57873, "BSTAR": 0.0018942734, "MEAN_MOTION_DOT": 7.118e-05, "MEAN_MOTION_DDOT": 0}, "tle": {"line1": "1 37689U 99025ELE 25350.92476203  .00007118  00000+0  18943-2 0  9999", "line2": "2 37689  98.9198  32.0803 0020895 227.3129 132.6303 14.48718217578736"}}, "geometry": {"type": "Point", "coordinates": [90.56612212314897, -79.15641032062949]}}, {"type": "Feature", "properties": {"norad_id": 37691, "name": "FENGYUN 1C DEB", "group": "fengyun-1c-debris", "lat": -69.62886890188014, "lon": 54.52541961273875, "alt_km": 815.3405880208829, "timestamp": "2025-12-20T03:42:47.682730+00:00", "meta": {"OBJECT_NAME": "FENGYUN 1C DEB", "OBJECT_ID": "1999-025ELG", "EPOCH": "2025-12-18T12:41:57.946560", "MEAN_MOTION": 14.5778063, "ECCENTRICITY": 0.02804592, "INCLINATION": 98.373, "RA_OF_ASC_NODE": 256.256, "ARG_OF_PERICENTER": 132.1144, "MEAN_ANOMALY": 230.4266, "EPHEMERIS_TYPE": 0, "CLASSIFICATION_TYPE": "U", "NORAD_CAT_ID": 37691, "ELEMENT_SET_NO": 999, "REV_AT_EPOCH": 85718, "BSTAR": 0.0012070229, "MEAN_MOTION_DOT": 9.478e-05, "MEAN_MOTION_DDOT": 0}, "tle": {"line1": "1 37691U 99025ELG 25352.52914290  .00009478  00000+0  12070-2 0  9999", "line2": "2 37691  98.3730 256.2560 0280459 132.1144 230.4266 14.57780630857181"}}, "geometry": {"type": "Point", "coordinates": [54.52541961273875, -69.62886890188014]}}, {"type": "Feature", "properties": {"norad_id": 37693, "name": "FENGYUN 1C DEB", "group": "fengyun-1c-debris", "lat": 79.69294776562519, "lon": -63.603534405690304, "alt_km": 811.6185190126671, "timestamp": "2025-12-20T03:42:47.682740+00:00", "meta": {"OBJECT_NAME": "FENGYUN 1C DEB", "OBJECT_ID": "1999-025ELJ", "EPOCH": "2025-12-16T18:19:01.844256", "MEAN_MOTION": 14.08494893, "ECCENTRICITY": 0.00726586, "INCLINATION": 98.6941, "RA_OF_ASC_NODE": 350.4139, "ARG_OF_PERICENTER": 63.6223, "MEAN_ANOMALY": 113.0699, "EPHEMERIS_TYPE": 0, "CLASSIFICATION_TYPE": "U", "NORAD_CAT_ID": 37693, "ELEMENT_SET_NO": 999, "REV_AT_EPOCH": 62205, "BSTAR": 0.00066899007, "MEAN_MOTION_DOT": 1.134e-05, "MEAN_MOTION_DDOT": 0}, "tle": {"line1": "1 37693U 99025ELJ 25350.76321579  .00001134  00000+0  66899-3 0  9997", "line2": "2 37693  98.6941 350.4139 0072658  63.6223 113.0699 14.08494893622056"}}, "geometry": {"type": "Point", "coordinates": [-63.603534405690304, 79.69294776562519]}}, {"type": "Feature", "properties": {"norad_id": 37694, "name": "FENGYUN 1C DEB", "group": "fengyun-1c-debris", "lat": 30.678802654075913, "lon": 56.281969918102114, "alt_km": 753.7877948136411, "timestamp": "2025-12-20T03:42:47.682751+00:00", "meta": {"OBJECT_NAME": "FENGYUN 1C DEB", "OBJECT_ID": "1999-025ELK", "EPOCH": "2025-12-14T10:20:27.757248", "MEAN_MOTION": 14.16668534, "ECCENTRICITY": 0.01472645, "INCLINATION": 98.1988, "RA_OF_ASC_NODE": 55.9107, "ARG_OF_PERICENTER": 88.6122, "MEAN_ANOMALY": 288.1431, "EPHEMERIS_TYPE": 0, "CLASSIFICATION_TYPE": "U", "NORAD_CAT_ID": 37694, "ELEMENT_SET_NO": 999, "REV_AT_EPOCH": 51728, "BSTAR": 0.0018272074, "MEAN_MOTION_DOT": 4.021e-05, "MEAN_MOTION_DDOT": 0}, "tle": {"line1": "1 37694U 99025ELK 25348.43087682  .00004021  00000+0  18272-2 0  9992", "line2": "2 37694  98.1988  55.9107 0147264  88.6122 288.1431 14.16668534517286"}}, "geometry": {"type": "Point", "coordinates": [56.281969918102114, 30.678802654075913]}}, {"type": "Feature", "properties": {"norad_id": 37695, "name": "FENGYUN 1C DEB", "group": "fengyun-1c-debris", "lat": -0.8367778859174881, "lon": 36.484645954398886, "alt_km": 1170.618396545432, "timestamp": "2025-12-20T03:42:47.682761+00:00", "meta": {"OBJECT_NAME": "FENGYUN 1C DEB", "OBJECT_ID": "1999-025ELL", "EPOCH": "2025-12-15T20:50:38.916672", "MEAN_MOTION": 13.64992638, "ECCENTRICITY": 0.04654766, "INCLINATION": 98.2113, "RA_OF_ASC_NODE": 32.72, "ARG_OF_PERICENTER": 252.5094, "MEAN_ANOMALY": 291.0319, "EPHEMERIS_TYPE": 0, "CLASSIFICATION_TYPE": "U", "NORAD_CAT_ID": 37695, "ELEMENT_SET_NO": 999, "REV_AT_EPOCH": 89294, "BSTAR": 0.00074996206, "MEAN_MOTION_DOT": 1.237e-05, "MEAN_MOTION_DDOT": 0}, "tle": {"line1": "1 37695U 99025ELL 25349.86850598  .00001237  00000+0  74996-3 0  9997", "line2": "2 37695  98.2113  32.7200 0465476 252.5094 291.0319 13.64992638892947"}}, "geometry": {"type": "Point", "coordinates": [36.484645954398886, -0.8367778859174881]}}, {"type": "Feature", "properties": {"norad_id": 37704, "name": "FENGYUN 1C DEB", "group": "fengyun-1c-debris", "lat": 70.42991566855945, "lon": 30.617097284212708, "alt_km": 877.552620484912, "timestamp": "2025-12-20T03:42:47.682771+00:00", "meta": {"OBJECT_NAME": "FENGYUN 1C DEB", "OBJECT_ID": "1999-025ELV", "EPOCH": "2025-12-10T18:58:47.253216", "MEAN_MOTION": 13.70500661, "ECCENTRICITY": 0.02401356, "INCLINATION": 98.3199, "RA_OF_ASC_NODE": 178.1952, "ARG_OF_PERICENTER": 184.1814, "MEAN_ANOMALY": 190.5574, "EPHEMERIS_TYPE": 0, "CLASSIFICATION_TYPE": "U", "NORAD_CAT_ID": 37704, "ELEMENT_SET_NO": 999, "REV_AT_EPOCH": 62338, "BSTAR": 0.0019314833, "MEAN_MOTION_DOT": 2.062e-05, "MEAN_MOTION_DDOT": 0}, "tle": {"line1": "1 37704U 99025ELV 25344.79082469  .00002062  00000+0  19315-2 0  9999", "line2": "2 37704  98.3199 178.1952 0240135 184.1814 190.5574 13.70500661623389"}}, "geometry": {"type": "Point", "coordinates": [30.617097284212708, 70.42991566855945]}}, {"type": "Feature", "properties": {"norad_id": 37707, "name": "FENGYUN 1C DEB", "group": "fengyun-1c-debris", "lat": -15.631087843880005, "lon": 2.700841089936259, "alt_km": 613.7001670489735, "timestamp": "2025-12-20T03:42:47.682782+00:00", "meta": {"OBJECT_NAME": "FENGYUN 1C DEB", "OBJECT_ID": "1999-025ELY", "EPOCH": "2025-12-17T06:35:19.530240", "MEAN_MOTION": 14.56477467, "ECCENTRICITY": 0.01433735, "INCLINATION": 100.2206, "RA_OF_ASC_NODE": 356.2824, "ARG_OF_PERICENTER": 12.733, "MEAN_ANOMALY": 358.6114, "EPHEMERIS_TYPE": 0, "CLASSIFICATION_TYPE": "U", "NORAD_CAT_ID": 37707, "ELEMENT_SET_NO": 999, "REV_AT_EPOCH": 85632, "BSTAR": 0.00056858098, "MEAN_MOTION_DOT": 2.832e-05, "MEAN_MOTION_DDOT": 0}, "tle": {"line1": "1 37707U 99025ELY 25351.27453160  .00002832  00000+0  56858-3 0  9992", "line2": "2 37707 100.2206 356.2824 0143373  12.7330 358.6114 14.56477467856327"}}, "geometry": {"type": "Point", "coordinates": [2.700841089936259, -15.631087843880005]}}, {"type": "Feature", "properties": {"norad_id": 37712, "name": "FENGYUN 1C DEB", "group": "fengyun-1c-debris", "lat": 19.16927939853865, "lon": 130.25263204127356, "alt_km": 732.3393750840787, "timestamp": "2025-12-20T03:42:47.682792+00:00", "meta": {"OBJECT_NAME": "FENGYUN 1C DEB", "OBJECT_ID": "1999-025EMD", "EPOCH": "2025-12-19T15:58:41.941344", "MEAN_MOTION": 14.36444911, "ECCENTRICITY": 0.0078929, "INCLINATION": 98.8186, "RA_OF_ASC_NODE": 132.8458, "ARG_OF_PERICENTER": 333.0498, "MEAN_ANOMALY": 38.7529, "EPHEMERIS_TYPE": 0, "CLASSIFICATION_TYPE": "U", "NORAD_CAT_ID": 37712, "ELEMENT_SET_NO": 999, "REV_AT_EPOCH": 64060, "BSTAR": 0.00029518, "MEAN_MOTION_DOT": 8.49e-06, "MEAN_MOTION_DDOT": 0}, "tle": {"line1": "1 37712U 99025EMD 25353.66576321  .00000849  00000+0  29518-3 0  9997", "line2": "2 37712  98.8186 132.8458 0078929 333.0498  38.7529 14.36444911640605"}}, "geometry": {"type": "Point", "coordinates": [130.25263204127356, 19.16927939853865]}}, {"type": "Feature", "properties": {"norad_id": 37714, "name": "FENGYUN 1C DEB", "group": "fengyun-1c-debris", "lat": 14.366611357362496, "lon": -71.6610359541848, "alt_km": 792.3002588996897, "timestamp": "2025-12-20T03:42:47.682802+00:00", "meta": {"OBJECT_NAME": "FENGYUN 1C DEB", "OBJECT_ID": "1999-025EMF", "EPOCH": "2025-12-17T02:51:19.662912", "MEAN_MOTION": 14.3227902, "ECCENTRICITY": 0.00479393, "INCLINATION": 98.8925, "RA_OF_ASC_NODE": 102.9292, "ARG_OF_PERICENTER": 71.5277, "MEAN_ANOMALY": 289.1107, "EPHEMERIS_TYPE": 0, "CLASSIFICATION_TYPE": "U", "NORAD_CAT_ID": 37714, "ELEMENT_SET_NO": 999, "REV_AT_EPOCH": 57572, "BSTAR": 0.0015552397, "MEAN_MOTION_DOT": 4.206e-05, "MEAN_MOTION_DDOT": 0}, "tle": {"line1": "1 37714U 99025EMF 25351.11897758  .00004206  00000+0  15552-2 0  9990", "line2": "2 37714  98.8925 102.9292 0047939  71.5277 289.1107 14.32279020575725"}}, "geometry": {"type": "Point", "coordinates": [-71.6610359541848, 14.366611357362496]}}, {"type": "Feature", "properties": {"norad_id": 37715, "name": "FENGYUN 1C DEB", "group": "fengyun-1c-debris", "lat": 63.682894556403085, "lon": -16.884328269577072, "alt_km": 828.6237671484341, "timestamp": "2025-12-20T03:42:47.682813+00:00", "meta": {"OBJECT_NAME": "FENGYUN 1C DEB", "OBJECT_ID": "1999-025EMG", "EPOCH": "2025-12-17T19:27:16.372224", "MEAN_MOTION": 13.95421222, "ECCENTRICITY": 0.01145113, "INCLINATION": 98.9562, "RA_OF_ASC_NODE": 359.431, "ARG_OF_PERICENTER": 98.2581, "MEAN_ANOMALY": 78.2636, "EPHEMERIS_TYPE": 0, "CLASSIFICATION_TYPE": "U", "NORAD_CAT_ID": 37715, "ELEMENT_SET_NO": 999, "REV_AT_EPOCH": 57874, "BSTAR": 0.00031322546, "MEAN_MOTION_DOT": 4.07e-06, "MEAN_MOTION_DDOT": 0}, "tle": {"line1": "1 37715U 99025EMG 25351.81060616  .00000407  00000+0  31323-3 0  9997", "line2": "2 37715  98.9562 359.4310 0114511  98.2581  78.2636 13.95421222578749"}}, "geometry": {"type": "Point", "coordinates": [-16.884328269577072, 63.682894556403085]}}]}